OBJECT_NAME,OBJECT_ID,EPOCH,MEAN_MOTION,ECCENTRICITY,INCLINATION,RA_OF_ASC_NODE,ARG_OF_PERICENTER,MEAN_ANOMALY,EPHEMERIS_TYPE,CLASSIFICATION_TYPE,NORAD_CAT_ID,ELEMENT_SET_NO,REV_AT_EPOCH,BSTAR,MEAN_MOTION_DOT,MEAN_MOTION_DDOT
SAUDISAT 1C (SO-50),2002-058C,2026-07-20T22:30:56.600640,14.83105633,.00743462,64.5521,24.5545,256.2283,103.0541,0,U,27607,999,26946,.84993258E-4,.57E-5,0
SAUDISAT 2,2004-025F,2026-07-20T23:04:16.491936,14.56700247,.00244289,98.5524,202.8186,190.1819,169.8887,0,U,28371,999,17066,.42203396E-4,.14E-5,0
SAUDISAT 3,2007-012B,2026-07-20T20:26:16.584576,14.71442302,.00158436,98.1470,152.2777,117.9566,242.3247,0,U,31118,999,3269,.33340543E-4,.156E-5,0
PISAT,2016-059B,2026-07-20T22:17:20.690016,14.69036210,.00305658,97.8194,200.9345,97.3573,263.1108,0,U,41784,999,52469,.11001452E-3,.603E-5,0
FLYING LAPTOP,2017-042G,2026-07-20T21:53:10.623264,15.01335051,.00193905,97.4839,356.1821,14.3546,345.8225,0,U,42831,999,49151,.1526712E-3,.1915E-4,0
SALSAT,2020-068K,2026-07-20T22:58:29.249472,15.30221969,.00098213,97.8866,207.0909,172.7459,187.3924,0,U,46495,999,32052,.18248446E-3,.5257E-4,0
